JILIN-1 GAOFEN 03D51    
1 54252U 22155B   26188.83866569  .00038876  00000+0  40813-3 0  9999
2 54252  97.6250 335.2676 0003983 259.6325 100.4485 15.64260976202974
JILIN-1 GAOFEN 03D53    
1 54253U 22155C   26188.83266631  .00021908  00000+0  33908-3 0  9999
2 54253  97.6239 330.5854 0004617 282.8266  77.2471 15.54069770202698
JILIN-1 GAOFEN 03D52    
1 54255U 22155E   26188.87792201  .00035289  00000+0  41241-3 0  9998
2 54255  97.6221 333.5565 0003343 278.6120  81.4758 15.61520631202938
JILIN-1 GAOFEN 03D50    
1 54690U 22167J   26188.86225771  .00007540  00000+0  22481-3 0  9990
2 54690  97.6852 357.5579 0005802  44.7885 315.3825 15.34955898198524
JILIN-1 GAOFEN 03D47    
1 54692U 22167L   26188.86273816  .00006987  00000+0  21315-3 0  9994
2 54692  97.6950 359.2951 0008325  52.7097 307.4903 15.34242268198513
JILIN-1 GAOFEN 03D49    
1 54694U 22167N   26188.83087234  .00008608  00000+0  23309-3 0  9997
2 54694  97.6827 359.8881 0006485  70.9135 289.2811 15.37918784198663
JILIN-1 GAOFEN 03D48    
1 54695U 22167P   26188.85828058  .00007671  00000+0  22342-3 0  9992
2 54695  97.6898 359.2617 0007000  53.3115 306.8770 15.35683685198566
JILIN GAOFEN OBJECT A   
1 68691U 26080A   26187.77966256  .00003644  00000+0  23333-3 0  9991
2 68691  97.6601 263.2709 0011906   4.6722 355.4615 15.09144054 12610
JILIN GAOFEN OBJECT B   
1 68692U 26080B   26188.75576231  .00003854  00000+0  24688-3 0  9998
2 68692  97.6588 264.2619 0015452 339.9913  20.0708 15.09060817 12760
JILIN GAOFEN OBJECT C   
1 68693U 26080C   26187.84459345  .00003832  00000+0  24525-3 0  9990
2 68693  97.6588 263.3208 0012730 345.3761  14.7097 15.09128172 12628
JILIN GAOFEN OBJECT D   
1 68694U 26080D   26188.82221999  .00003913  00000+0  25139-3 0  9994
2 68694  97.6653 264.3973 0017122 351.5456   8.5481 15.08917936 12757
JILIN GAOFEN OBJECT E   
1 68695U 26080E   26188.87159859  .00003353  00000+0  21461-3 0  9997
2 68695  97.6636 264.4659 0013104   3.8327 356.2999 15.09212133 12745
JILIN GAOFEN OBJECT F   
1 68696U 26080F   26188.87044550  .00003301  00000+0  21146-3 0  9992
2 68696  97.6607 264.4364 0014233   9.4019 350.7474 15.09176286 12746
JILIN GAOFEN OBJECT G   
1 68697U 26080G   26188.85648201  .00003122  00000+0  20035-3 0  9991
2 68697  97.6649 264.5026 0014072   2.6410 357.4890 15.09159810 12740
JILIN GAOFEN OBJECT H   
1 68698U 26080H   26182.82007068  .00007709  00000+0  48996-3 0  9994
2 68698  97.6647 258.4665 0015405  23.9908 336.2035 15.09020248 11836
