{"fetched_at":"2026-07-08T07:04:01.103Z","source":"https://celestrak.org/NORAD/elements/gp.php?NAME=JILIN&FORMAT=JSON","constellation":"jilin-1-gaofen","records":[{"OBJECT_NAME":"JILIN-1 GAOFEN 03D51","OBJECT_ID":"2022-155B","EPOCH":"2026-07-07T20:07:40.715616","CLASSIFICATION_TYPE":"U","MEAN_MOTION":15.64260976,"ECCENTRICITY":0.0003983,"INCLINATION":97.625,"RA_OF_ASC_NODE":335.2676,"ARG_OF_PERICENTER":259.6325,"MEAN_ANOMALY":100.4485,"EPHEMERIS_TYPE":0,"NORAD_CAT_ID":54252,"ELEMENT_SET_NO":999,"REV_AT_EPOCH":20297,"BSTAR":0.00040813,"MEAN_MOTION_DOT":0.00038876,"MEAN_MOTION_DDOT":0},{"OBJECT_NAME":"JILIN-1 GAOFEN 03D53","OBJECT_ID":"2022-155C","EPOCH":"2026-07-07T19:59:02.369184","CLASSIFICATION_TYPE":"U","MEAN_MOTION":15.5406977,"ECCENTRICITY":0.0004617,"INCLINATION":97.6239,"RA_OF_ASC_NODE":330.5854,"ARG_OF_PERICENTER":282.8266,"MEAN_ANOMALY":77.2471,"EPHEMERIS_TYPE":0,"NORAD_CAT_ID":54253,"ELEMENT_SET_NO":999,"REV_AT_EPOCH":20269,"BSTAR":0.00033908,"MEAN_MOTION_DOT":0.00021908,"MEAN_MOTION_DDOT":0},{"OBJECT_NAME":"JILIN-1 GAOFEN 03D52","OBJECT_ID":"2022-155E","EPOCH":"2026-07-07T21:04:12.461664","CLASSIFICATION_TYPE":"U","MEAN_MOTION":15.61520631,"ECCENTRICITY":0.0003343,"INCLINATION":97.6221,"RA_OF_ASC_NODE":333.5565,"ARG_OF_PERICENTER":278.612,"MEAN_ANOMALY":81.4758,"EPHEMERIS_TYPE":0,"NORAD_CAT_ID":54255,"ELEMENT_SET_NO":999,"REV_AT_EPOCH":20293,"BSTAR":0.00041241,"MEAN_MOTION_DOT":0.00035289,"MEAN_MOTION_DDOT":0},{"OBJECT_NAME":"JILIN-1 GAOFEN 03D50","OBJECT_ID":"2022-167J","EPOCH":"2026-07-07T20:41:39.066144","CLASSIFICATION_TYPE":"U","MEAN_MOTION":15.34955898,"ECCENTRICITY":0.0005802,"INCLINATION":97.6852,"RA_OF_ASC_NODE":357.5579,"ARG_OF_PERICENTER":44.7885,"MEAN_ANOMALY":315.3825,"EPHEMERIS_TYPE":0,"NORAD_CAT_ID":54690,"ELEMENT_SET_NO":999,"REV_AT_EPOCH":19852,"BSTAR":0.00022481,"MEAN_MOTION_DOT":0.0000754,"MEAN_MOTION_DDOT":0},{"OBJECT_NAME":"JILIN-1 GAOFEN 03D47","OBJECT_ID":"2022-167L","EPOCH":"2026-07-07T20:42:20.577024","CLASSIFICATION_TYPE":"U","MEAN_MOTION":15.34242268,"ECCENTRICITY":0.0008325,"INCLINATION":97.695,"RA_OF_ASC_NODE":359.2951,"ARG_OF_PERICENTER":52.7097,"MEAN_ANOMALY":307.4903,"EPHEMERIS_TYPE":0,"NORAD_CAT_ID":54692,"ELEMENT_SET_NO":999,"REV_AT_EPOCH":19851,"BSTAR":0.00021315,"MEAN_MOTION_DOT":0.00006987,"MEAN_MOTION_DDOT":0},{"OBJECT_NAME":"JILIN-1 GAOFEN 03D49","OBJECT_ID":"2022-167N","EPOCH":"2026-07-07T19:56:27.370176","CLASSIFICATION_TYPE":"U","MEAN_MOTION":15.37918784,"ECCENTRICITY":0.0006485,"INCLINATION":97.6827,"RA_OF_ASC_NODE":359.8881,"ARG_OF_PERICENTER":70.9135,"MEAN_ANOMALY":289.2811,"EPHEMERIS_TYPE":0,"NORAD_CAT_ID":54694,"ELEMENT_SET_NO":999,"REV_AT_EPOCH":19866,"BSTAR":0.00023309,"MEAN_MOTION_DOT":0.00008608,"MEAN_MOTION_DDOT":0},{"OBJECT_NAME":"JILIN-1 GAOFEN 03D48","OBJECT_ID":"2022-167P","EPOCH":"2026-07-07T20:35:55.442112","CLASSIFICATION_TYPE":"U","MEAN_MOTION":15.35683685,"ECCENTRICITY":0.0007,"INCLINATION":97.6898,"RA_OF_ASC_NODE":359.2617,"ARG_OF_PERICENTER":53.3115,"MEAN_ANOMALY":306.877,"EPHEMERIS_TYPE":0,"NORAD_CAT_ID":54695,"ELEMENT_SET_NO":999,"REV_AT_EPOCH":19856,"BSTAR":0.00022342,"MEAN_MOTION_DOT":0.00007671,"MEAN_MOTION_DDOT":0},{"OBJECT_NAME":"JILIN GAOFEN OBJECT A","OBJECT_ID":"2026-080A","EPOCH":"2026-07-06T18:42:42.845184","CLASSIFICATION_TYPE":"U","MEAN_MOTION":15.09144054,"ECCENTRICITY":0.00119065,"INCLINATION":97.6601,"RA_OF_ASC_NODE":263.2709,"ARG_OF_PERICENTER":4.6722,"MEAN_ANOMALY":355.4615,"EPHEMERIS_TYPE":0,"NORAD_CAT_ID":68691,"ELEMENT_SET_NO":999,"REV_AT_EPOCH":1261,"BSTAR":0.00023333317,"MEAN_MOTION_DOT":0.00003644,"MEAN_MOTION_DDOT":0},{"OBJECT_NAME":"JILIN GAOFEN OBJECT B","OBJECT_ID":"2026-080B","EPOCH":"2026-07-07T18:08:17.863584","CLASSIFICATION_TYPE":"U","MEAN_MOTION":15.09060817,"ECCENTRICITY":0.0015452,"INCLINATION":97.6588,"RA_OF_ASC_NODE":264.2619,"ARG_OF_PERICENTER":339.9913,"MEAN_ANOMALY":20.0708,"EPHEMERIS_TYPE":0,"NORAD_CAT_ID":68692,"ELEMENT_SET_NO":999,"REV_AT_EPOCH":1276,"BSTAR":0.00024688,"MEAN_MOTION_DOT":0.00003854,"MEAN_MOTION_DDOT":0},{"OBJECT_NAME":"JILIN GAOFEN OBJECT C","OBJECT_ID":"2026-080C","EPOCH":"2026-07-06T20:16:12.874080","CLASSIFICATION_TYPE":"U","MEAN_MOTION":15.09128172,"ECCENTRICITY":0.00127303,"INCLINATION":97.6588,"RA_OF_ASC_NODE":263.3208,"ARG_OF_PERICENTER":345.3761,"MEAN_ANOMALY":14.7097,"EPHEMERIS_TYPE":0,"NORAD_CAT_ID":68693,"ELEMENT_SET_NO":999,"REV_AT_EPOCH":1262,"BSTAR":0.00024525317,"MEAN_MOTION_DOT":0.00003832,"MEAN_MOTION_DDOT":0},{"OBJECT_NAME":"JILIN GAOFEN OBJECT D","OBJECT_ID":"2026-080D","EPOCH":"2026-07-07T19:43:59.807136","CLASSIFICATION_TYPE":"U","MEAN_MOTION":15.08917936,"ECCENTRICITY":0.0017122,"INCLINATION":97.6653,"RA_OF_ASC_NODE":264.3973,"ARG_OF_PERICENTER":351.5456,"MEAN_ANOMALY":8.5481,"EPHEMERIS_TYPE":0,"NORAD_CAT_ID":68694,"ELEMENT_SET_NO":999,"REV_AT_EPOCH":1275,"BSTAR":0.00025139,"MEAN_MOTION_DOT":0.00003913,"MEAN_MOTION_DDOT":0},{"OBJECT_NAME":"JILIN GAOFEN OBJECT E","OBJECT_ID":"2026-080E","EPOCH":"2026-07-07T20:55:06.118176","CLASSIFICATION_TYPE":"U","MEAN_MOTION":15.09212133,"ECCENTRICITY":0.0013104,"INCLINATION":97.6636,"RA_OF_ASC_NODE":264.4659,"ARG_OF_PERICENTER":3.8327,"MEAN_ANOMALY":356.2999,"EPHEMERIS_TYPE":0,"NORAD_CAT_ID":68695,"ELEMENT_SET_NO":999,"REV_AT_EPOCH":1274,"BSTAR":0.00021461,"MEAN_MOTION_DOT":0.00003353,"MEAN_MOTION_DDOT":0},{"OBJECT_NAME":"JILIN GAOFEN OBJECT F","OBJECT_ID":"2026-080F","EPOCH":"2026-07-07T20:53:26.491200","CLASSIFICATION_TYPE":"U","MEAN_MOTION":15.09176286,"ECCENTRICITY":0.0014233,"INCLINATION":97.6607,"RA_OF_ASC_NODE":264.4364,"ARG_OF_PERICENTER":9.4019,"MEAN_ANOMALY":350.7474,"EPHEMERIS_TYPE":0,"NORAD_CAT_ID":68696,"ELEMENT_SET_NO":999,"REV_AT_EPOCH":1274,"BSTAR":0.00021146,"MEAN_MOTION_DOT":0.00003301,"MEAN_MOTION_DDOT":0},{"OBJECT_NAME":"JILIN GAOFEN OBJECT G","OBJECT_ID":"2026-080G","EPOCH":"2026-07-07T20:33:20.045664","CLASSIFICATION_TYPE":"U","MEAN_MOTION":15.0915981,"ECCENTRICITY":0.0014072,"INCLINATION":97.6649,"RA_OF_ASC_NODE":264.5026,"ARG_OF_PERICENTER":2.641,"MEAN_ANOMALY":357.489,"EPHEMERIS_TYPE":0,"NORAD_CAT_ID":68697,"ELEMENT_SET_NO":999,"REV_AT_EPOCH":1274,"BSTAR":0.00020035,"MEAN_MOTION_DOT":0.00003122,"MEAN_MOTION_DDOT":0},{"OBJECT_NAME":"JILIN GAOFEN OBJECT H","OBJECT_ID":"2026-080H","EPOCH":"2026-07-01T19:40:54.106752","CLASSIFICATION_TYPE":"U","MEAN_MOTION":15.09020248,"ECCENTRICITY":0.00154058,"INCLINATION":97.6647,"RA_OF_ASC_NODE":258.4665,"ARG_OF_PERICENTER":23.9908,"MEAN_ANOMALY":336.2035,"EPHEMERIS_TYPE":0,"NORAD_CAT_ID":68698,"ELEMENT_SET_NO":999,"REV_AT_EPOCH":1183,"BSTAR":0.00048995825,"MEAN_MOTION_DOT":0.00007709,"MEAN_MOTION_DDOT":0}]}
